COSMOS 2475 [GLONASS-M] 
1 37869U 11064C   26060.36904505  .00000038  00000+0  00000+0 0  9990
2 37869  65.2203  76.6098 0028072 254.0402 132.0097  2.13101533111470
BEIDOU-2 IGSO-5         
1 37948U 11073A   26060.51498981 -.00000133  00000+0  00000+0 0  9998
2 37948  47.8731 272.8747 0108571 221.0681 305.9392  1.00272949 52059
LUCH-5A                 
1 37951U 11074B   26060.37539352 -.00000063  00000+0  00000+0 0  9997
2 37951   8.4794  75.3923 0004129 240.3052 145.6667  1.00274828 51979
BEIDOU-2 G5             
1 38091U 12008A   26060.45884630  .00000039  00000+0  00000+0 0  9994
2 38091   3.3045  70.3230 0014171 249.3487  63.5063  1.00275176 51282
BEIDOU-2 M3             
1 38250U 12018A   26058.64934387 -.00000047  00000+0  00000+0 0  9995
2 38250  55.8510 308.5694 0021667 279.4287  80.3821  1.86229864 93909
BEIDOU-2 M4             
1 38251U 12018B   26058.58148709 -.00000045  00000+0  00000+0 0  9992
2 38251  55.7521 307.7944 0013045 286.0559  73.8564  1.86229541 93900
SES-5                   
1 38652U 12036A   26060.36850338  .00000015  00000+0  00000+0 0  9990
2 38652   0.0618 308.4666 0001960  20.5838 327.7350  1.00271819 43379
BEIDOU-2 M6             
1 38775U 12050B   26058.82871498  .00000003  00000+0  00000+0 0  9997
2 38775  56.4488  66.5090 0013848 341.4819  18.5089  1.86230827 91274
GSAT-10                 
1 38779U 12051B   26060.39228598 -.00000183  00000+0  00000+0 0  9994
2 38779   0.0808 264.6175 0003905 175.2353 303.4964  1.00273330 49018
NAVSTAR 67 (USA 239)    
1 38833U 12053A   26060.12692792 -.00000023  00000+0  00000+0 0  9992
2 38833  53.5655 148.0278 0176907  64.7622 297.0835  2.00565715 97273
GSAT0103 (GALILEO-FM3)  
1 38857U 12055A   26059.37062073  .00000009  00000+0  00000+0 0  9991
2 38857  55.7357 104.5311 0005306 284.5770  75.4441  1.70473336 83153
BEIDOU-2 G6             
1 38953U 12059A   26060.39245933 -.00000191  00000+0  00000+0 0  9997
2 38953   4.1479  74.6759 0010310 301.6036   8.1876  1.00269517 48820
LUCH-5B                 
1 38977U 12061A   26060.30119891 -.00000151  00000+0  00000+0 0  9996
2 38977  10.2517  50.9348 0004220 223.3386 336.9449  1.00271836 48521
COSMOS 2485 [GLONASS-M] 
1 39155U 13019A   26060.44975302  .00000039  00000+0  00000+0 0  9995
2 39155  65.3577  77.2196 0025514 236.7123 123.0984  2.13102956 99982
NAVSTAR 68 (USA 242)    
1 39166U 13023A   26059.99178260  .00000017  00000+0  00000+0 0  9994
2 39166  54.5885 273.3798 0141528  49.8622 311.4171  2.00564138 93710
IRNSS-1A                
1 39199U 13034A   26059.60211306  .00000074  00000+0  00000+0 0  9992
2 39199  35.4806  65.4211 0017922 190.7298 174.0645  1.00268932 46283
NAVSTAR 69 (USA 248)    
1 39533U 14008A   26059.99006589 -.00000028  00000+0  00000+0 0  9993
2 39533  53.6376 153.7343 0082182 228.1724 131.1354  2.00552830 87512
ASTRA 5B                
1 39617U 14011B   26060.30917227  .00000118  00000+0  00000+0 0  9996
2 39617   0.0977 295.8096 0004293  24.8388 333.2452  1.00269145 43581
COSMOS 2492 [GLONASS-M] 
1 39620U 14012A   26059.93931605 -.00000046  00000+0  00000+0 0  9995
2 39620  65.3598 317.6175 0013311 325.5987  34.3692  2.13103126 92935
IRNSS-1B                
1 39635U 14017A   26059.08497358  .00000117  00000+0  00000+0 0  9992
2 39635  29.1168 242.2640 0021082 179.2495 181.9470  1.00269801 43706
LUCH-5V                 
1 39727U 14023A   26060.51213063 -.00000285  00000+0  00000+0 0  9997
2 39727   4.8670  70.8004 0002930 272.5610  95.0329  1.00272584 43285
NAVSTAR 70 (USA 251)    
1 39741U 14026A   26060.26839326 -.00000096  00000+0  00000+0 0  9994
2 39741  56.5480 335.7218 0039909 324.3215  35.4388  2.00568795 86370
COSMOS 2500 [GLONASS-M] 
1 40001U 14032A   26060.11047194 -.00000045  00000+0  00000+0 0  9994
2 40001  65.2949 317.3676 0005259 204.8536 155.1757  2.13105796 91155
NAVSTAR 71 (USA 256)    
1 40105U 14045A   26059.35845854  .00000016  00000+0  00000+0 0  9993
2 40105  55.2783  92.7996 0031587 120.5582 239.8250  2.00551177 83896
GSAT0201 (GALILEO 5)    
1 40128U 14050A   26057.38590622  .00000013  00000+0  00000+0 0  9992
2 40128  48.9939 277.9705 1656870 175.1037 186.7695  1.85519850 76268
GSAT0202 (GALILEO 6)    
1 40129U 14050B   26058.18083150  .00000012  00000+0  00000+0 0  9994
2 40129  49.0095 277.0224 1657890 175.8719 185.7122  1.85520639 78441
IRNSS-1C                
1 40269U 14061A   26059.64139192 -.00000178  00000+0  00000+0 0  9995
2 40269   6.2390  91.0520 0019741 356.5189  24.7793  1.00270430 41609
NAVSTAR 72 (USA 258)    
1 40294U 14068A   26060.23406430 -.00000062  00000+0  00000+0 0  9991
2 40294  56.9172  35.1139 0062653  68.0452 292.6136  2.00569484 83042
COSMOS 2501 [GLONASS-K] 
1 40315U 14075A   26060.37097795 -.00000015  00000+0  00000+0 0  9996
2 40315  63.6172 194.1013 0020702 205.6418 154.2159  2.13101119 87557
NAVSTAR 73 (USA 260)    
1 40534U 15013A   26060.36526662 -.00000012  00000+0  00000+0 0  9998
2 40534  53.1869 208.6351 0108721  39.7688 320.9703  2.00557717 79661
GSAT0203 (GALILEO 7)    
1 40544U 15017A   26058.52158611 -.00000103  00000+0  00000+0 0  9994
2 40544  56.8234 344.5881 0005161 295.0116  64.9415  1.70475495 67337
